SL-16 R/B               
1 24298U 96051B   25323.54222226 -.00000028  00000+0  11821-4 0  9993
2 24298  70.7609  48.3841 0018519 290.3368  69.5761 14.12393782506093
ORBVIEW 2 (SEASTAR)     
1 24883U 97037A   25323.91217483  .00000353  00000+0  13918-3 0  9996
2 24883  98.8450 120.4137 0002755  44.1221 316.0183 14.35392603492724
SL-16 R/B               
1 25400U 98043G   25323.85450054  .00000099  00000+0  60461-4 0  9999
2 25400  98.8087 271.5489 0009465 339.1934  20.8859 14.26017548423330
SL-16 R/B               
1 25407U 98045B   25323.94993216 -.00000043  00000+0  21716-5 0  9991
2 25407  71.0123  52.3514 0008301 208.9116 151.1548 14.16168580411565
ISS (ZARYA)             
1 25544U 98067A   25323.31903918  .00014458  00000+0  26247-3 0  9994
2 25544  51.6333 258.3957 0004144  86.8503 273.2960 15.49817487539229
CZ-4B R/B               
1 25732U 99025C   25323.55812222  .00000111  00000+0  74522-4 0  9992
2 25732  98.6803   5.3528 0036155 302.5523 219.5088 14.18235375372552
OKEAN-O                 
1 25860U 99039A   25323.87227619  .00000808  00000+0  11351-3 0  9997
2 25860  97.9636  19.7687 0001208  66.7503 293.3835 14.80105738418147
SL-16 R/B               
1 25861U 99039B   25323.88939512  .00000679  00000+0  93381-4 0  9991
2 25861  98.0159  18.0357 0013547 252.1225 107.8510 14.81538816420608
DELTA 2 R/B             
1 25876U 99041E   25323.91127417  .00001343  00000+0  25563-3 0  9992
2 25876  51.7631  19.5685 0504913  24.4908 337.9135 14.11320720347529
HELIOS 1B               
1 25977U 99064A   25323.65884933  .00002423  00000+0  27600-3 0  9997
2 25977  98.1756 217.6419 0002511  74.0629 286.0863 14.87149004668905
TERRA                   
1 25994U 99068A   25323.94803541  .00000561  00000+0  12378-3 0  9995
2 25994  97.9781  16.4646 0002841 144.8795  28.2949 14.60914960379050
SL-16 R/B               
1 26070U 00006B   25323.72494394 -.00000147  00000+0 -50590-4 0  9994
2 26070  71.0020 329.0503 0017271 340.8767  19.1706 14.15801302332997
